0 EUTE HOT BIRD 13C (HB 9)
1 33459U 08065A   13281.85434834  .00000075  00000-0  10000-3 0  9050
2 33459 000.0711 287.5369 0003846 280.0614 130.6122 01.00273079 17773
0 EUTE HOT BIRD 13C (HB 9)
1 33459U 08065A   13283.15083973  .00000071  00000-0  10000-3 0  9066
2 33459 000.0801 287.4344 0004201 286.6756 232.1161 01.00273184 17790
0 EUTE HOT BIRD 13C (HB 9)
1 33459U 08065A   13285.17832794  .00000065  00000-0  10000-3 0  9088
2 33459 000.0788 289.1072 0004435 290.0795 238.9390 01.00273552 17812
0 EUTE HOT BIRD 13C (HB 9)
1 33459U 08065A   13287.14000876  .00000062  00000-0  10000-3 0  9093
2 33459 000.0776 290.3318 0004510 291.6360 224.3067 01.00273999 17832
0 EUTE HOT BIRD 13C (HB 9)
1 33459U 08065A   13288.09428748  .00000062  00000-0  10000-3 0  9102
2 33459 000.0730 291.5884 0005128 298.8452 200.3235 01.00274114 17842
0 EUTE HOT BIRD 13C (HB 9)
1 33459U 08065A   13288.77418595  .00000063  00000-0  10000-3 0  9118
2 33459 000.0726 291.8617 0005088 301.5307 082.7968 01.00273868 17840
0 EUTE HOT BIRD 13C (HB 9)
1 33459U 08065A   13289.10670351  .00000063  00000-0  10000-3 0  9127
2 33459 000.0729 292.0402 0005164 302.5187 201.6614 01.00273586 17858
0 EUTE HOT BIRD 13C (HB 9)
1 33459U 08065A   13290.14153964  .00000064  00000-0  10000-3 0  9131
2 33459 000.0724 290.5366 0006527 317.4332 201.7918 01.00272644 17869
0 EUTE HOT BIRD 13C (HB 9)
1 33459U 08065A   13291.13710858  .00000066  00000-0  10000-3 0  9145
2 33459 000.0754 288.6305 0006550 315.4733 205.0396 01.00271708 17870
0 EUTE HOT BIRD 13C (HB 9)
1 33459U 08065A   13293.09993829  .00000070  00000-0  10000-3 0  9159
2 33459 000.0699 291.1320 0005927 310.9913 195.5667 01.00271560 17893
0 EUTE HOT BIRD 13C (HB 9)
1 33459U 08065A   13295.06797818  .00000074  00000-0  10000-3 0  9163
2 33459 000.0656 293.2450 0005924 311.8094 183.0724 01.00272737 17916
